[{"OBJECT_NAME":"GEESAT-5 06","OBJECT_ID":"2025-201F","EPOCH":"2026-03-09T12:12:25.250112","MEAN_MOTION":14.83771772,"ECCENTRICITY":0.00144332,"INCLINATION":49.9906,"RA_OF_ASC_NODE":141.562,"ARG_OF_PERICENTER":298.4848,"MEAN_ANOMALY":61.4637,"EPHEMERIS_TYPE":0,"CLASSIFICATION_TYPE":"U","NORAD_CAT_ID":65555,"ELEMENT_SET_NO":999,"REV_AT_EPOCH":2698,"BSTAR":0.00016353536,"MEAN_MOTION_DOT":1.141e-5,"MEAN_MOTION_DDOT":0},{"OBJECT_NAME":"CZ-6A DEB","OBJECT_ID":"2022-151VS","EPOCH":"2026-03-09T04:51:15.060960","MEAN_MOTION":14.9137966,"ECCENTRICITY":0.00559122,"INCLINATION":98.6335,"RA_OF_ASC_NODE":146.9052,"ARG_OF_PERICENTER":180.6585,"MEAN_ANOMALY":179.4567,"EPHEMERIS_TYPE":0,"CLASSIFICATION_TYPE":"U","NORAD_CAT_ID":55201,"ELEMENT_SET_NO":999,"REV_AT_EPOCH":17149,"BSTAR":0.0042126159,"MEAN_MOTION_DOT":0.00043496,"MEAN_MOTION_DDOT":0}]
